start=new Date('2022-08-11T00:00:00.000Z').valueOf();
sats=[{"MEAN_MOTION_DDOT":"0.0000000000000","PERIOD":"95.593","OBJECT_ID":"2020-062AS","RA_OF_ASC_NODE":"78.8544","CENTER_NAME":"EARTH","TLE_LINE1":"1 46365U 20062AS  22222.71465094 -.00002093  00000-0 -12173-3 0  9993","SEMIMAJOR_AXIS":"6925.406","MEAN_MOTION_DOT":"-0.00002093","MEAN_MOTION":"15.06381169","REF_FRAME":"TEME","SITE":"AFETR","MEAN_ELEMENT_THEORY":"SGP4","RCS_SIZE":"LARGE","TLE_LINE2":"2 46365  53.0557  78.8544 0001259  79.2872 280.8259 15.06381169107944","OBJECT_NAME":"STARLINK-1550","CLASSIFICATION_TYPE":"U","ARG_OF_PERICENTER":"79.2872","FILE":"3533963","INCLINATION":"53.0557","TIME_SYSTEM":"UTC","OBJECT_TYPE":"PAYLOAD","REV_AT_EPOCH":"10794","BSTAR":"-0.00012173000000","MEAN_ANOMALY":"280.8259","EPOCH":"2022-08-10T17:09:05.841216","PERIAPSIS":"546.399","NORAD_CAT_ID":"46365","LAUNCH_DATE":"2020-09-03","APOAPSIS":"548.143","DECAY_DATE":null,"COUNTRY_CODE":"US","EPHEMERIS_TYPE":"0","ECCENTRICITY":"0.00012590","GP_ID":"209992647","ELEMENT_SET_NO":"999"},{"TLE_LINE1":"1 46366U 20062AT  22222.83628678  .00024375  00000-0  16555-2 0  9998","CENTER_NAME":"EARTH","RA_OF_ASC_NODE":"78.3141","OBJECT_ID":"2020-062AT","PERIOD":"95.601","MEAN_MOTION_DDOT":"0.0000000000000","MEAN_MOTION":"15.06267596","SEMIMAJOR_AXIS":"6925.754","MEAN_MOTION_DOT":"0.00024375","RCS_SIZE":"LARGE","MEAN_ELEMENT_THEORY":"SGP4","SITE":"AFETR","REF_FRAME":"TEME","CLASSIFICATION_TYPE":"U","OBJECT_NAME":"STARLINK-1651","TLE_LINE2":"2 46366  53.0556  78.3141 0002073  73.0952 287.0265 15.06267596107963","BSTAR":"0.00165550000000","MEAN_ANOMALY":"287.0265","REV_AT_EPOCH":"10796","OBJECT_TYPE":"PAYLOAD","TIME_SYSTEM":"UTC","INCLINATION":"53.0556","FILE":"3533963","ARG_OF_PERICENTER":"73.0952","PERIAPSIS":"546.184","EPOCH":"2022-08-10T20:04:15.177792","EPHEMERIS_TYPE":"0","DECAY_DATE":null,"COUNTRY_CODE":"US","APOAPSIS":"549.055","LAUNCH_DATE":"2020-09-03","NORAD_CAT_ID":"46366","ELEMENT_SET_NO":"999","GP_ID":"209992896","ECCENTRICITY":"0.00020730"},{"NORAD_CAT_ID":"46368","LAUNCH_DATE":"2020-09-03","COUNTRY_CODE":"US","DECAY_DATE":null,"APOAPSIS":"548.310","EPHEMERIS_TYPE":"0","ECCENTRICITY":"0.00015260","GP_ID":"209994146","ELEMENT_SET_NO":"999","ARG_OF_PERICENTER":"75.8110","FILE":"3533963","TIME_SYSTEM":"UTC","INCLINATION":"53.0538","OBJECT_TYPE":"PAYLOAD","BSTAR":"-0.00006557600000","REV_AT_EPOCH":"10762","MEAN_ANOMALY":"284.3049","EPOCH":"2022-08-10T20:02:12.542496","PERIAPSIS":"546.197","REF_FRAME":"TEME","SITE":"AFETR","MEAN_ELEMENT_THEORY":"SGP4","RCS_SIZE":"LARGE","OBJECT_NAME":"STARLINK-1658","TLE_LINE2":"2 46368  53.0538 103.3006 0001526  75.8110 284.3049 15.06386914107621","CLASSIFICATION_TYPE":"U","MEAN_MOTION_DDOT":"0.0000000000000","OBJECT_ID":"2020-062AV","PERIOD":"95.593","CENTER_NAME":"EARTH","RA_OF_ASC_NODE":"103.3006","TLE_LINE1":"1 46368U 20062AV  22222.83486739 -.00001258  00000-0 -65576-4 0  9996","MEAN_MOTION_DOT":"-0.00001258","SEMIMAJOR_AXIS":"6925.389","MEAN_MOTION":"15.06386914"},{"MEAN_ELEMENT_THEORY":"SGP4","RCS_SIZE":"LARGE","REF_FRAME":"TEME","SITE":"AFETR","TLE_LINE2":"2 46370  53.0536 103.1849 0001667  75.6857 284.4316 15.06389312107620","OBJECT_NAME":"STARLINK-1670","CLASSIFICATION_TYPE":"U","RA_OF_ASC_NODE":"103.1849","CENTER_NAME":"EARTH","TLE_LINE1":"1 46370U 20062AX  22222.86531106 -.00003125  00000-0 -19101-3 0  9998","MEAN_MOTION_DDOT":"0.0000000000000","PERIOD":"95.593","OBJECT_ID":"2020-062AX","MEAN_MOTION":"15.06389312","MEAN_MOTION_DOT":"-0.00003125","SEMIMAJOR_AXIS":"6925.381","APOAPSIS":"548.401","COUNTRY_CODE":"US","DECAY_DATE":null,"EPHEMERIS_TYPE":"0","NORAD_CAT_ID":"46370","LAUNCH_DATE":"2020-09-03","ELEMENT_SET_NO":"999","ECCENTRICITY":"0.00016670","GP_ID":"209994375","OBJECT_TYPE":"PAYLOAD","BSTAR":"-0.00019101000000","REV_AT_EPOCH":"10762","MEAN_ANOMALY":"284.4316","FILE":"3533963","ARG_OF_PERICENTER":"75.6857","INCLINATION":"53.0536","TIME_SYSTEM":"UTC","PERIAPSIS":"546.092","EPOCH":"2022-08-10T20:46:02.875584"},{"SITE":"AFETR","REF_FRAME":"TEME","RCS_SIZE":"LARGE","MEAN_ELEMENT_THEORY":"SGP4","CLASSIFICATION_TYPE":"U","OBJECT_NAME":"STARLINK-1688","TLE_LINE2":"2 46371  53.0553 103.2144 0001396  72.7595 287.3547 15.06392991107620","OBJECT_ID":"2020-062AY","PERIOD":"95.593","MEAN_MOTION_DDOT":"0.0000000000000","TLE_LINE1":"1 46371U 20062AY  22222.85794425  .00014333  00000-0  97936-3 0  9996","CENTER_NAME":"EARTH","RA_OF_ASC_NODE":"103.2144","SEMIMAJOR_AXIS":"6925.370","MEAN_MOTION_DOT":"0.00014333","MEAN_MOTION":"15.06392991","LAUNCH_DATE":"2020-09-03","NORAD_CAT_ID":"46371","EPHEMERIS_TYPE":"0","DECAY_DATE":null,"COUNTRY_CODE":"US","APOAPSIS":"548.202","GP_ID":"209993146","ECCENTRICITY":"0.00013960","ELEMENT_SET_NO":"999","TIME_SYSTEM":"UTC","INCLINATION":"53.0553","ARG_OF_PERICENTER":"72.7595","FILE":"3533963","BSTAR":"0.00097936000000","MEAN_ANOMALY":"287.3547","REV_AT_EPOCH":"10762","OBJECT_TYPE":"PAYLOAD","EPOCH":"2022-08-10T20:35:26.383200","PERIAPSIS":"546.268"},{"CLASSIFICATION_TYPE":"U","TLE_LINE2":"2 46372  53.0554 123.1649 0001718  73.8608 286.2570 15.06386465107340","OBJECT_NAME":"STARLINK-1689","SITE":"AFETR","REF_FRAME":"TEME","RCS_SIZE":"LARGE","MEAN_ELEMENT_THEORY":"SGP4","SEMIMAJOR_AXIS":"6925.390","MEAN_MOTION_DOT":"-0.00003329","MEAN_MOTION":"15.06386465","PERIOD":"95.593","OBJECT_ID":"2020-062AZ","MEAN_MOTION_DDOT":"0.0000000000000","TLE_LINE1":"1 46372U 20062AZ  22222.86715721 -.00003329  00000-0 -20479-3 0  9993","RA_OF_ASC_NODE":"123.1649","CENTER_NAME":"EARTH","GP_ID":"209993395","ECCENTRICITY":"0.00017180","ELEMENT_SET_NO":"999","LAUNCH_DATE":"2020-09-03","NORAD_CAT_ID":"46372","EPHEMERIS_TYPE":"0","APOAPSIS":"548.445","DECAY_DATE":null,"COUNTRY_CODE":"US","EPOCH":"2022-08-10T20:48:42.382944","PERIAPSIS":"546.065","INCLINATION":"53.0554","TIME_SYSTEM":"UTC","ARG_OF_PERICENTER":"73.8608","FILE":"3533963","BSTAR":"-0.00020479000000","REV_AT_EPOCH":"10734","MEAN_ANOMALY":"286.2570","OBJECT_TYPE":"PAYLOAD"},{"ELEMENT_SET_NO":"999","GP_ID":"209965608","ECCENTRICITY":"0.00015320","EPHEMERIS_TYPE":"0","APOAPSIS":"548.309","DECAY_DATE":null,"COUNTRY_CODE":"US","LAUNCH_DATE":"2020-09-03","NORAD_CAT_ID":"46374","PERIAPSIS":"546.187","EPOCH":"2022-08-09T22:51:01.795104","BSTAR":"-0.00027610000000","MEAN_ANOMALY":"254.9945","REV_AT_EPOCH":"10818","OBJECT_TYPE":"PAYLOAD","INCLINATION":"53.0536","TIME_SYSTEM":"UTC","ARG_OF_PERICENTER":"105.1213","FILE":"3533800","CLASSIFICATION_TYPE":"U","TLE_LINE2":"2 46374  53.0536  57.2870 0001532 105.1213 254.9945 15.06388702108187","OBJECT_NAME":"STARLINK-1711","RCS_SIZE":"LARGE","MEAN_ELEMENT_THEORY":"SGP4","SITE":"AFETR","REF_FRAME":"TEME","MEAN_MOTION":"15.06388702","MEAN_MOTION_DOT":"-0.00004390","SEMIMAJOR_AXIS":"6925.383","TLE_LINE1":"1 46374U 20062BB  22221.95210411 -.00004390  00000-0 -27610-3 0  9993","RA_OF_ASC_NODE":"57.2870","CENTER_NAME":"EARTH","PERIOD":"95.593","OBJECT_ID":"2020-062BB","MEAN_MOTION_DDOT":"0.0000000000000"},{"SEMIMAJOR_AXIS":"6925.397","MEAN_MOTION_DOT":"-0.00003663","MEAN_MOTION":"15.06384150","MEAN_MOTION_DDOT":"0.0000000000000","OBJECT_ID":"2020-062BC","PERIOD":"95.593","CENTER_NAME":"EARTH","RA_OF_ASC_NODE":"78.9273","TLE_LINE1":"1 46375U 20062BC  22222.69622057 -.00003663  00000-0 -22725-3 0  9993","OBJECT_NAME":"STARLINK-1724","TLE_LINE2":"2 46375  53.0541  78.9273 0001184  66.4341 293.6772 15.06384150107949","CLASSIFICATION_TYPE":"U","REF_FRAME":"TEME","SITE":"AFETR","MEAN_ELEMENT_THEORY":"SGP4","RCS_SIZE":"LARGE","EPOCH":"2022-08-10T16:42:33.457248","PERIAPSIS":"546.442","ARG_OF_PERICENTER":"66.4341","FILE":"3533963","TIME_SYSTEM":"UTC","INCLINATION":"53.0541","OBJECT_TYPE":"PAYLOAD","BSTAR":"-0.00022725000000","MEAN_ANOMALY":"293.6772","REV_AT_EPOCH":"10794","ECCENTRICITY":"0.00011840","GP_ID":"209993876","ELEMENT_SET_NO":"999","NORAD_CAT_ID":"46375","LAUNCH_DATE":"2020-09-03","COUNTRY_CODE":"US","DECAY_DATE":null,"APOAPSIS":"548.082","EPHEMERIS_TYPE":"0"},{"SEMIMAJOR_AXIS":"6925.398","MEAN_MOTION_DOT":"-0.00001942","MEAN_MOTION":"15.06383810","MEAN_MOTION_DDOT":"0.0000000000000","PERIOD":"95.593","OBJECT_ID":"2020-062BD","RA_OF_ASC_NODE":"78.8807","CENTER_NAME":"EARTH","TLE_LINE1":"1 46376U 20062BD  22222.71096383 -.00001942  00000-0 -11154-3 0  9996","TLE_LINE2":"2 46376  53.0538  78.8807 0001552  91.9147 268.2019 15.06383810107948","OBJECT_NAME":"STARLINK-1742","CLASSIFICATION_TYPE":"U","REF_FRAME":"TEME","SITE":"AFETR","MEAN_ELEMENT_THEORY":"SGP4","RCS_SIZE":"LARGE","EPOCH":"2022-08-10T17:03:47.274912","PERIAPSIS":"546.188","FILE":"3533963","ARG_OF_PERICENTER":"91.9147","INCLINATION":"53.0538","TIME_SYSTEM":"UTC","OBJECT_TYPE":"PAYLOAD","REV_AT_EPOCH":"10794","BSTAR":"-0.00011154000000","MEAN_ANOMALY":"268.2019","ECCENTRICITY":"0.00015520","GP_ID":"209992648","ELEMENT_SET_NO":"999","NORAD_CAT_ID":"46376","LAUNCH_DATE":"2020-09-03","APOAPSIS":"548.338","DECAY_DATE":null,"COUNTRY_CODE":"US","EPHEMERIS_TYPE":"0"},{"PERIAPSIS":"546.132","EPOCH":"2022-08-10T17:50:53.283264","OBJECT_TYPE":"PAYLOAD","BSTAR":"-0.00030086000000","MEAN_ANOMALY":"275.1017","REV_AT_EPOCH":"10760","FILE":"3533963","ARG_OF_PERICENTER":"85.0164","TIME_SYSTEM":"UTC","INCLINATION":"53.0532","ELEMENT_SET_NO":"999","ECCENTRICITY":"0.00016860","GP_ID":"209992897","COUNTRY_CODE":"US","DECAY_DATE":null,"APOAPSIS":"548.467","EPHEMERIS_TYPE":"0","NORAD_CAT_ID":"46380","LAUNCH_DATE":"2020-09-03","MEAN_MOTION":"15.06371878","SEMIMAJOR_AXIS":"6925.435","MEAN_MOTION_DOT":"-0.00004757","CENTER_NAME":"EARTH","RA_OF_ASC_NODE":"103.7430","TLE_LINE1":"1 46380U 20062BH  22222.74367226 -.00004757  00000-0 -30086-3 0  9993","MEAN_MOTION_DDOT":"0.0000000000000","OBJECT_ID":"2020-062BH","PERIOD":"95.594","OBJECT_NAME":"STARLINK-1758","TLE_LINE2":"2 46380  53.0532 103.7430 0001686  85.0164 275.1017 15.06371878107607","CLASSIFICATION_TYPE":"U","MEAN_ELEMENT_THEORY":"SGP4","RCS_SIZE":"LARGE","REF_FRAME":"TEME","SITE":"AFETR"}];
